{"fetched_at":"2026-03-29T02:12:04Z","count":15717,"tles":[{"name":"STARLINK-5635","line1":"1 55367U 23013AN  26087.53503821  .00002329  00000+0  96448-4 0  9995","line2":"2 55367  43.0016 182.4194 0001474 265.9570  94.1113 15.26747471174725","category":"Starlink"}]}