{
  "norad_id": 55367,
  "name": "STARLINK-5635",
  "history": [
    {
      "epoch": "2026-03-28T12:50:27.301344",
      "apogee_km": 486.55482655013566,
      "perigee_km": 484.5314136507304,
      "latitude_deg": -27.47980061083391,
      "longitude_deg": 128.06366815976799,
      "semi_major_axis_km": 6863.680120100433,
      "eccentricity": 0.0001474,
      "inclination_deg": 43.0016,
      "raan_deg": 182.4194,
      "arg_perigee_deg": 265.957,
      "mean_anomaly_deg": 94.1113,
      "mean_motion_rev_day": 15.26747471
    }
  ]
}